url,identificador,locale,send,foto,nombre,telefono,fax,correo-electronico,web,horario,descripcion,direccion,localizacion,categorias
"http://www.gijon.es/directorios/show/9839-casa-de-correos","9839","es","fecha-actualizacion2014-07-16 13:40:48 +0200","http://www.gijon.es/data/images/f0/f6/61945/1456x2184_v1_SMT_16166-1.JPG","Casa de Correos","985 176 806","985 176 834","lunes-viernes 8,30-20,30 sábados: 9,30-14,00","Se construye entre 1928 y 1930. El proyecto de este edificio se presenta al Concurso Nacional que el Misinterio de Comunicaciones estableció en 1918 con el objetivo de la selección de proyectos arquitectónicos para la cosntrucción de 59 casas de correos y telégrafos en España. En el caso de Gijón, triunfarian los arquitectos Joaquín Otamendi y Luis Lozano y dirigiría las obras Miguel Garcia de la Cruz.<br/><br/>El edificio es un ejemplo de arquitectura regionalista, de estilo montañés, que se evidencia en el torreón exagonal y en los pronunciados aleros. El acceso principal, en esta torre angular, presenta una portada revival en clave barroca. No obstante, este edificio es uno de los pocos ejemplos de Casa de Correos donde se busca la superación del estilo regionalista imperante en el primer tercio del s. XX, así, en la decoración de las fachadas prima la síntesis y la limpieza, más próximas al <i>Art decó</i>.<br/><br/>En la Plaza 6 de agosto confluyen las principales calles comerciales de la ciudad. El edificio de correos hace fachada con las calles Moros y Fernández Vallín.","Plaza 6 de Agosto","43.539689 -5.663023","Edificios y lugares de interés, Turismo"
"http://www.gijon.es/directorios/show/9807-casona-de-alvarez-nava","9807","es","fecha-actualizacion2014-07-16 13:11:22 +0200","http://www.gijon.es/data/images/f0/f5/59546/455x390_v1_casanava.JPG","Casona de Álvarez Nava","<p>LaCasona de Álvarez Nava es un edificio barroco levantado a principios del sigloXVIII por Pedro José Nava-Palacio.</p><p>A lolargo del tiempo pasó por diferentes usos. En 1903, el Ayuntamiento de Gijónadquirió la propiedad y sirvió como escuela de niños de Cimavilla, dependenciasde la Administración, Palacio de Justicia y centro cultural.</p><p>Desde2007, tras su última rehabilitación, es sede del Consejo Consultivo delPrincipado de Asturias.</p>","C/ Salamanca","43.545973 -5.663385","Monumentos, Edificios y lugares de interés, Gijón, Ilustrado, Cultura y Ocio, Turismo"
"http://www.gijon.es/directorios/show/9804-casa-del-chino","9804","es","fecha-actualizacion2014-07-16 13:41:25 +0200","http://www.gijon.es/data/images/f0/f5/59543/1002x670_v1_casadelchino.JPG","Casa del Chino","<p>La conocida como Casa del Chino,recibe su singular nombre de uno de sus propietarios, Chaoyo Wey, que en ladécada de los sesenta estableció aquí su vivienda y con ella un mesón chino yun negocio de adornos de papel (banderitas, girasoles…), siendo famosos susfarolillos que se utilizaban en la desaparecida “Fiesta del farolillo”. Muchoantes, posiblemente en el siglo XVI, se ubicó aquí la casa consistorial o <em>Casa de la Villa</em>, antes de su traslado ala Torre del Reloj. Actualmente es sede del centro social del barrio deCimavilla.</p><p>Se trata de una construcción decarácter tradicional donde el corredor es el elemento más característico.Normalmente realizado en madera de roble o castaño, el corredor se sitúa en elpiso alto de la vivienda, orientado al sur o al este. En este caso es desencilla factura, pero es frecuente que los corredores se decoren tanto en labalaustrada, capiteles y zapatas de las columnas así como basa y alero. Tieneun carácter multifuncional ya que se relaciona con las actividades del campo alutilizarse como secadero y maduración de la cosecha y otros productos deconsumo, además, sirve como aislante climático de la vivienda y facilita laslabores domésticas protegiendo la ropa tendida de la lluvia.</p>","Plaza Soledad, 7","43.547278 -5.664662","Monumentos, Edificios y lugares de interés, Cultura y Ocio, Turismo"
"http://www.gijon.es/directorios/show/9801-capilla-de-san-juan-bautista","9801","es","fecha-actualizacion2014-07-16 13:15:04 +0200","http://www.gijon.es/data/images/f0/f5/59535/552x497_v1_sanjuanbautista.JPG","Capilla de San Juan Bautista","<p>Año consturcción: hacia 1702 – 1723.</p><p>Monumento históricoArtístico (1.974).<br/></p>Capilla del palacio del marqués de San Esteban del Mar. Fue fundada en 1699 por D. Luis de Jove Ramírez fallecido en 1713, prior de la catedral de Oviedo y tío del primer marqués de San Esteban. El Templo, de estilo barroco, fue proyectado por el arquitecto asturiano Francisco Menénedez-Camina Carreño y concluido por Pedro Muñiz Somonte en 1723.","Plaza del Marqués hacia C/ Oscar Ollavaría","43.545327 -5.663887","Monumentos, Edificios y lugares de interés, Cultura y Ocio, Turismo"
"http://www.gijon.es/directorios/show/9798-chimenea-de-poniente","9798","es","fecha-actualizacion2014-07-16 13:47:43 +0200","http://www.gijon.es/data/images/f0/f5/59529/435x355_v1_chimenea.JPG","Chimenea de Poniente","<p>Estachimenea es un vestigio de la actividad industrial que se desarrollaba en elterreno ocupado por los Astilleros del Cantábrico. Al calor de la actividad delpuerto, se emplazaron en él empresas auxiliares de la construcción naval; entreellas, numerosas factorías madereras.</p><p>Lachimenea, conocida como “Chimenea de Basurto” por estar situada junto a unaempresa vidriera del mismo nombre, perteneció<strong></strong>a la Compañía de Maderas de Demetrio Fernández Castrillón, fábricadocumentada desde al menos 1876 que disponía de una fragua y de un tallermecánico para serrar y moldurar.</p>","Paseo Playa de Poniente","43.541761 -5.674889","Monumentos, Edificios y lugares de interés, Cultura y Ocio, Turismo"
"http://www.gijon.es/directorios/show/9795-plaza-6-de-agosto","9795","es","fecha-actualizacion2014-07-16 13:39:12 +0200","http://www.gijon.es/data/images/f0/f5/59516/908x603_v1_plaza6agosto.JPG","Plaza 6 de Agosto","<p>El seisde agosto de 1891, el escultor Manuel Fuxá levantó el monumento a Jovellanosque conmemora su regreso a Gijón en 1811 y hoy preside la plaza.</p><p>La plazaera la punta de lanza de la calle Corrida, que unía el puerto carbonero con laPuerta de la Villa, construida en 1782 a instancias de Jovellanos y principal víade comunicación con Oviedo.</p><p>En laplaza se levantan edificios de diferentes periodos que ejemplifican laevolución de la ciudad, destacando el Mercado del Sur, ejemplo de arquitecturadel hierro, y el edificio de Correos, de estilo regionalista.</p>","Plaza 6 de Agosto","43.539571 -5.663527","Monumentos, Edificios y lugares de interés, Cultura y Ocio, Turismo"
"http://www.gijon.es/directorios/show/9792-refugio-antiaereo-de-cimavilla","9792","es","fecha-actualizacion2014-01-22 12:06:35 +0100","http://www.gijon.es/data/images/f0/f5/59539/399x345_v1_refugioantiaereo.JPG","Refugio Antiaéreo de Cimavilla","<p>Los bombardeos de la Legión Cóndor entre1936 y 1937 y el asedio del buque Almirante Cervera en julio y agosto de 1936 movieronal gobierno local a tomar medidas paraproteger a la población civil.</p><p>Gijón llegó a disponer de 193 refugios, entre losque destacan los túneles del barrio alto, en Cimavilla. Esta red de 500 m² con capacidad para1.200 personas disponía de tres accesos, de los cuales se conserva el del muelledel puerto deportivo, con una puerta situada bajo la Casa Paquet.</p>","Cerro de Santa Catalina, Cimavilla - 33201","43.549409 -5.663661","Monumentos, Edificios y lugares de interés, Cultura y Ocio, Turismo"
"http://www.gijon.es/directorios/show/9789-la-gota-de-leche","9789","es","fecha-actualizacion2014-07-16 13:46:35 +0200","http://www.gijon.es/data/images/f6/6641/250x164_v1_DirectorioserviciosmunicipalesFMSS-gotaleche.jpg","La Gota de Leche","<p>En 1925se abrió el Instituto de Puericultura, conocido popularmente como “La Gota deLeche” por ser el reparto gratuito de leche para niños necesitados el primerservicio habilitado. El edificio, de estilo montañés, es obra del arquitectomunicipal Miguel García de la Cruz y Laviada (1887-1935).</p><p>ElInstituto contaba con diferentes servicios, como el de maternidad, la guarderíainfantil para madres trabajadoras y las policlínicas para niños. También sepuso en marcha la escuela de puericultura, una de las primeras fundadas enEspaña, en la cual se formaron matronas, médicos, enfermeras y maestraspuericultoras.</p>","C/ Palacio Valdés, 2 - 33206","43.538886 -5.666424","Monumentos, Edificios y lugares de interés, Cultura y Ocio, Turismo"
"http://www.gijon.es/directorios/show/9782-antiguo-hogar-maternal-e-infantil","9782","es","fecha-actualizacion2014-07-16 13:28:48 +0200","http://www.gijon.es/data/images/f6/6495/250x314_v1_Directorioserviciosmunicipalesantiguo_hogar.jpg","Antiguo Hogar Maternal e Infantil","<p>Trasveinticinco años de funcionamiento del antiguo Instituto de Puericultura,conocido como “La Gota de Leche”, y debido a la carencia de algunos servicios,se levantó un nuevo edificio, el Hogar Maternal e Infantil, que inició suandadura en 1949.</p><p></p><p>Eledificio, proyectado por Pedro Cabello (1888-1973), se inscribe en la corrientearquitectónica del Movimiento Moderno y conjuga elementos del racionalismo conun aire expresionista que le confiere la torre circular.</p><p></p><p>En estecentro se instalaron servicios como el comedor de embarazadas y lactantes, lasescuelas maternales y el hogar infantil. Actualmente acoge dependencias delAyuntamiento de Gijón.</p>","C/ Palacio Valdés, 2 - 33206","43.538848 -5.666414","Monumentos, Edificios y lugares de interés, Cultura y Ocio, Turismo"
"http://www.gijon.es/directorios/show/9769-calle-corrida","9769","es","fecha-actualizacion2014-07-16 13:38:07 +0200","http://www.gijon.es/data/images/f0/f5/59426/4535x3035_v1_SMT_5975-1.jpg","Calle Corrida","<p>Estacalle, que partía del arenal de La Trinidad y unía el puerto carbonero con lasalida de la ciudad, debe su nombre a lo transitada o “corrida” que era, o quizáal “corrimiento” de una hilera de edificios que la hizo más ancha.</p><p>En todasu extensión se alzan edificios de las últimas décadas del siglo XIX y primerasdel XX, cuyas fachadas reflejan el gustopor las curvas, los vanos acristalados, las rejerías y la ornamentaciónescultórica<strong>.</strong></p>","Calle Corrida, 33206 - Gijón","43.541983 -5.664058","Edificios y lugares de interés, Turismo"
"http://www.gijon.es/directorios/show/9766-plaza-del-marques","9766","es","fecha-actualizacion2014-01-22 12:06:33 +0100","http://www.gijon.es/data/images/f0/f5/59425/7800x5739_v1_SMT_2472-1.jpg","Plaza del Marqués","<p>La Plazadel Marqués recibe su nombre del título otorgado en 1707 por Felipe V a CarlosMiguel Ramírez de Jove, primer marqués de San Esteban del Mar de Natahoyo y regidorperpetuo de la villa de Gijón.</p><p>Vinculadoa las actividades del mar, este espacio acogió entre los siglos III y IV unaindustria salazonera destinada al comercio interior.</p><p>Tras la construcción del puerto, iniciada en elreinado de los Reyes Católicos, se acometió el pozo de la Barquera, donde seanunciaba la elección de los cargos del concejo entre los siglos XVI y XVIII.</p>","Plaza del Marqués, 33201 - Gijón","43.545071 -5.663525","Monumentos, Edificios y lugares de interés, Cultura y Ocio, Turismo"
"http://www.gijon.es/directorios/show/9763-plazuela-de-la-corrada","9763","es","fecha-actualizacion2014-01-22 12:06:33 +0100","http://www.gijon.es/data/images/f0/f5/59424/1197x801_v1_SMT_1290-1.jpg","Plazuela de la Corrada","<p>La callede la Corrada, documentada en 1752 en el Catastro de Ensenada, debe su nombre ahaber acogido las primeras corridas de toros en Gijón durante la festividad deSan Pedro de 1660.</p><p>Susedificios, levantados en diferentes épocas, acogen un nutrido conjunto de establecimientoscomerciales y de ocio. En la parte baja de la plaza se halla la antigua CasaConsistorial, construida a finales del siglo XVIII.</p>","Plaza Corrada, 33201 - Gijón","43.546366 -5.664404","Monumentos, Edificios y lugares de interés, Cultura y Ocio, Turismo"
"http://www.gijon.es/directorios/show/9669-policia-local-hermanos-felgueroso","9669","es","fecha-actualizacion2014-03-11 14:42:19 +0100","Policía Local (Hermanos Felgueroso)","43.535187 -5.658587","Zona Wifi, Boleras, Escuelas Infantiles, Sindicatos, Estaciones de Servicio, Bares y cafés, Edificios y lugares de interés, Puerto deportivo, Saboreando - Restaurantes y sidrerías, Repostería, Comunicaciones, Deporte, Educación, Otros, Transporte, Turismo"
"http://www.gijon.es/directorios/show/9668-parque-de-la-serena","9668","es","fecha-actualizacion2014-03-11 14:43:39 +0100","Parque de La Serena","43.530505 -5.664557","Zona Wifi, Boleras, Escuelas Infantiles, Sindicatos, Estaciones de Servicio, Bares y cafés, Edificios y lugares de interés, Puerto deportivo, Saboreando - Restaurantes y sidrerías, Comunicaciones, Deporte, Educación, Otros, Transporte, Turismo"
"http://www.gijon.es/directorios/show/9667-playa-de-san-lorenzo-piles","9667","es","fecha-actualizacion2014-03-11 14:41:08 +0100","Playa de San Lorenzo (Piles)","43.540398 -5.646737","Zona Wifi, Boleras, Escuelas Infantiles, Sindicatos, Estaciones de Servicio, Bares y cafés, Edificios y lugares de interés, Puerto deportivo, Comunicaciones, Deporte, Educación, Otros, Transporte, Turismo"
"http://www.gijon.es/directorios/show/9666-playa-de-san-lorenzo-nautico","9666","es","fecha-actualizacion2014-03-11 14:40:26 +0100","Playa de San Lorenzo (Naútico)","43.542731 -5.660169","Zona Wifi, Boleras, Escuelas Infantiles, Sindicatos, Estaciones de Servicio, Bares y cafés, Edificios y lugares de interés, Comunicaciones, Deporte, Educación, Otros, Transporte, Turismo"
"http://www.gijon.es/directorios/show/2441-edificio-calle-jovellanos-esquina-calle-la-merced","2441","es","fecha-actualizacion2014-06-13 12:01:48 +0200","http://www.gijon.es/data/images/f0/f2/29635/169x133_v1_esquina.jpg","Edificio calle Jovellanos, esquina calle La Merced","<span style="font-weight: bold;">Autor:</span> José Granet Prat. <br/><br/><span style="font-weight: bold;">Fecha:</span> 1901. <br/><br/><span style="font-weight: bold;">Categoría:</span> Modernismo. <br/><br/>Edificio que, con un desarrollo vertical de cuatro pisos de altura, presenta una tendencia verticalista notoriamente acusada. <span style="font-weight: bold;">Recurre a una solución muy característica de estos años</span> y que es la del tipo de casa con fachadas a dos calles, típicamente burguesa. Puede observarse en él la relación con el modernismo catalán, especialmente de sabor gaudiano. <br/><br/>Dicha vinculación se pone de manifiesto tanto en la llamativa solución de remate por medio de pináculos, como en lo que comporta, de un lado, al <span style="font-weight: bold;">movimiento ondulante que sigue la fachada en planta</span> y, de otra parte, a la incorporación de caprichosas formas orgánicas en la decoración de los balcones.","C/ Jovellanos - C/ La Merced","43.541548 -5.661926","Monumentos, Turismo, 2010, Gijón, Edificios y lugares de interés, Cultura y Ocio, Turismo"
"http://www.gijon.es/directorios/show/1751-edificio-banco-urquijo-antigua-sociedad-de-fomento-de-gijon","1751","es","fecha-actualizacion2014-07-16 13:44:11 +0200","http://www.gijon.es/data/images/f7/7296/250x188_v1_DirectorioMONUMENTOSUrquijo01.jpg","Edificio Banco Urquijo, antigua Sociedad de Fomento de Gijón","<p>Esteedificio, diseñado por Enrique Rodríguez Bustelo (1885-1983), es un destacadoejemplo de la arquitectura regionalista en Asturias. Fue levantado en 1918 parala Sociedad de Fomento de Gijón, encargada de la gestión de los muelles ydársenas del puerto, aunque su primer ocupante fue el Banco Minero Industrial.</p><p>Eldiseño de Rodríguez Bustelo responde al modelo de vivienda unifamiliar exentarodeada de jardín, a imitación de los palacios castellanos del Renacimiento. Lainspiración clasicista de su ornamentación se aprecia en los capiteles, los arcosy los pináculos del arranque del tejado. Escalera de doble tramo en la puerta de acceso.</p>","C/Marqués de San Esteban, 2","43.54361 -5.665083","Monumentos, 2010, Gijón, Edificios y lugares de interés, Cultura y Ocio, Turismo"
"http://www.gijon.es/directorios/show/1659-sala-de-exposicion-antigua-rula-de-la-autoridad-portuaria-de-gijon","1659","es","fecha-actualizacion2014-09-01 15:33:30 +0200","http://www.gijon.es/data/images/f0/f5/59456/2279x1672_v1_SMT_1017-1.jpg","Sala de Exposición Antigua Rula de la Autoridad Portuaria de Gijón","<p>El crecimientodel transporte marítimo gijonés desde el segundo cuarto del siglo XIX hizonecesario ampliar el Puerto Local de Gijón, cuyas infraestructuras resultabaninsuficientes.</p><p>Junto con laconstrucción del Dique Santa Catalina (1864), en 1870 se construyó el MuelleVictoria, conocido popularmente como “Muellín” sobre el que se levantó unedificio destinado a la aduana.</p><p>El impulsoindustrializador y la demanda de mayores infraestructura portuarias propiciarona principios del siglo XX la entrada en funcionamiento de El Musel (1907),puerto exterior para dar servicio fundamentalmente al carbón de las cuencascentrales de la región y posteriormente, a la siderurgia asturiana.</p><p>En el antiguoPuerto Local se mantuvo la actividad pesquera y el edificio de la aduana setransformó en lonja o “rula” de pescado y fábrica de hielo.</p><p>En 1987 elconjunto de edificaciones fue reformado para acoger un edificio de serviciosmúltiples, un restaurante y la Sala de Exposiciones Antigua Rula.</p>","C/ Claudio Alvargonzález, 32 - 33201","43.546406 -5.666491","Pictogramas, Sala de Exposiciones, Monumentos, Edificios y lugares de interés, Cultura y Ocio, Turismo, Gijón con Calidad"
"http://www.gijon.es/directorios/show/1385-universidad-laboral","1385","es","fecha-actualizacion2014-01-22 12:02:55 +0100","http://www.gijon.es/data/images/f6/6999/200x150_v1_DirectorioMONUMENTOSunivlaboral.jpg","Universidad Laboral","985 185 500 , 985 181 080 , 985 131 729   /868 , 902 306 600(Teatro)","985 132 900","laboral@educastur.princast.es","<span style="font-weight: bold;">Autor:</span> Luis Moya.<br/> <br/><div style="text-align: justify;">Obra destinada a Orfanato Minero, en la que el arquitecto Luis Moya configura la ciudad perfecta, autónoma, realidad y símbolo del <span style="font-weight: bold;">&quot;orden nuevo&quot;</span>. Destaca por la monumentalidad, por la armonía irregular y por la adaptación de la orografía del terreno. La <span style="font-weight: bold;">fachada principal, asimétrica</span>, muestra la influencia de la Escuela de Chicago y la puerta se abre bajo un torreón, siguiendo la tradición de Roma y de la Europa medieval. Atravesado el atrio, se pasa a la Plaza Central, de 8300 metros cuadrados, destacando al fondo la silueta de la torre. El teatro tiene 1654 localidades y la capilla, de <span style="font-weight: bold;">influencia paleocristiana</span>, es de dimensiones suficientes para albergar a toda la población residente en la Universidad.</div>","C/ Luis Moya Blanco, 261 (Cabueñes)","43.523804 -5.613383","Monumentos, Institutos de Educación Secundaria, Centros de Formación, Cajeros de transporte emtusa, Edificios y lugares de interés, Cultura y Ocio, Educación, Transporte, Turismo"
"http://www.gijon.es/directorios/show/1365-torre-de-los-jove-hevia-y-capilla-de-san-lorenzo","1365","es","fecha-actualizacion2014-06-13 10:13:58 +0200","http://www.gijon.es/data/images/f6/6992/250x333_v1_DirectorioMONUMENTOSJove_Hevia-capilla.jpg","Torre de los Jove-Hevia y Capilla de San Lorenzo","<p>Esteconjunto barroco formado por capilla, torre y cuerpo posterior destinado aresidencia se construyó a finales del siglo XVII, formando parte del ensanchebarroco que expandió el núcleo de Cimavilla hacia el antiguo barrio deBajovilla, cuya ocupación comenzó en el siglo XVI.</p><p>Lacapilla de San Lorenzo, levantada en 1668, recuerda a la de Nuestra Señora deGuadalupe, con una portada en arco de medio punto rematada por un frontón curvoquebrado y una espadaña decorada con pináculos y bolas.</p><p>La torre,cuadrada y con remate almenado, emula las construcciones medievales y utilizael sillar como elemento decorativo, así como molduras barrocas que insinúanorejas quebradas.</p>","C/Cabrales, 4","43.544308 -5.661886","Monumentos, Ilustrado, Edificios y lugares de interés, Cultura y Ocio, Turismo"
"http://www.gijon.es/directorios/show/1266-plaza-de-toros-el-bibio","1266","es","fecha-actualizacion2014-01-22 12:02:52 +0100","http://www.gijon.es/data/images/f6/6920/250x188_v1_DirectorioMONUMENTOSplazatoros.jpg","Plaza de Toros El Bibio","<p>La Plazade Toros de El Bibio es uno de los pocos ejemplos gijoneses de arquitectura neomudéjar,el estilo imperante en la construcción de cosos taurinos en el último cuartodel siglo XIX.<br/></p><p>Inaugurada el 12 de agosto de 1888.Erigida la plaza (1886-1888), bajo dirección y plano del arquitecto Ignacio de Velasco, al borde de la carretera de Villaviciosa, y basándose en un proyecto del arquitecto madrileño Carlos Velasco Peyronnet, hubo de ser rehecha una vez finalizada la guerra civil.Es declarada Monumento Histórico-Artístico desde el 20 de marzo de 1992, pertenece a la corriente neomudéjar 'impuesta' por la antigua plaza de toros de Madrid ya desaparecida, tendencia que se consideraba idónea para plasmar en los ruedos peninsulares. En el diseño exterior destacala utilización del ladrillo prensado para ornamentar los vanos, los arcos deherradura y las cresterías. El circo taurino tiene la forma de un polígono de 16 lados, tres alturas y dos volúmenes pegados al norte y al sur, haciendo el último de ellos las veces de puerta monumental.<br/></p><span style="font-weight: bold;">Autor:</span><br/>Proyecto del arquitecto Ignacio de Velasco fue reconstruida después de la guerra civil.<br/><br/><span style="font-weight: bold;">Fecha:</span><br/>1888","Ctra. de Villaviciosa, 1. 33203 Gijón","43.535047 -5.645862","Monumentos, Edificios y lugares de interés, Cultura y Ocio, Turismo"
"http://www.gijon.es/directorios/show/1263-plaza-san-miguel","1263","es","fecha-actualizacion2014-01-22 12:02:52 +0100","http://www.gijon.es/data/images/f0/f5/59525/579x376_v1_plazuela.JPG","Plaza San Miguel","Recibesu nombre del militar y político asturiano Evaristo San Miguel y Valledor(1785-1862), autor de la letra del “Himno de Riego” en 1820.<p>La plazase sitúa en uno de los vértices de la antigua muralla, levantada en 1837,cuando la ciudad fue declarada plaza fuerte durante la primera guerra carlista.Sus muros se unían en este mismo espacio, formando uno de los baluartes de lafortificación.</p><p>En elúltimo cuarto del siglo XIX, el Estado cedió los terrenos que permitirían a laciudad proyectarse fuera del recinto amurallado. Comenzaba así el ensanche delarenal de San Lorenzo, que daría como resultado el nacimiento del popular “BarriuL’Arena”.</p><p>Historicismo,art-decó, modernismo y racionalismo son los estilos que caracterizan a losedificios que rodean a la plaza.</p>Llamada popularmente La Plazuela. De forma ovalada, sirve de rótula entre el Gijón moderno y el del ensanche. Busto erigido en recuerdo de Evaristo San Miguel y Valledor, héroe de la Guerra de la Independencia.<br/><br/>Accesibilidad: Acceso, pavimento, movilidad interior, papeleras y fuentes.","Plaza San Miguel","43.539753 -5.65738","Parques y Jardines, Edificios y lugares de interés, Medio Ambiente, Turismo"
"http://www.gijon.es/directorios/show/1249-casa-paquet","1249","es","fecha-actualizacion2014-07-16 13:42:36 +0200","http://www.gijon.es/data/images/f6/6919/250x188_v1_DirectorioMONUMENTOScasa-paquet01.jpg","Casa Paquet","<p>La casapaquet, levantada en Cimavilla en 1918, es una vivienda unifamiliar inspiradaen modelos castizos del siglo XVI. Fue diseñada por el arquitecto Miguel Garcíade la Cruz y Laviada (1887-1935) y constituye el mejor ejemplo de palaciourbano de inspiración renacentista en Asturias.</p><p>La torrede la casa posee un singular balcón esquinado en el que se abre un vano ojivalenmarcado por semicolumnas que sustentan un frontón. La rica decoración exterior,con arquerías ciegas, medallones yalfices, nos retrotrae a la arquitectura del Siglo de Oro español.</p>","Plaza Fermín García Bernardo, 4. 33201 Gijón","43.545694 -5.664351","Monumentos, 2010, Gijón, Edificios y lugares de interés, Cultura y Ocio, Turismo"
"http://www.gijon.es/directorios/show/1106-parque-de-isabel-la-catolica","1106","es","fecha-actualizacion2014-01-22 12:02:49 +0100","http://www.gijon.es/data/images/f0/f5/59435/915x552_v1_parque.JPG","Parque de Isabel La Católica","<p>Proyectado en 1941, es el espacio verde de mayor extensiónen la ciudad. En sus 151.857 m² coexistendiferentes ambientes. Destacan sus lagos, flanqueados por gran variedad deárboles y poblados de ocas, cisnes y aves silvestres.</p><p>El espacio central es la rosaleda, de estilo francés, dondehabitan los pavos reales, seña de identidad del parque. Otros espacios deinterés son la pradera próxima a la avenida de Castilla y la zona de juegosinfantiles.</p><p>El parque posee un amplio repertorio escultórico conmotivos mitológicos, personajes históricos y personalidades de la ciudad. En sumobiliario destacan los bancos de piedra y hierro fundido de los años veinte.</p>","Avda. Castilla (esquina Avda. Torcuato Fernández Miranda)","43.537723 -5.642917","Parques y Jardines, Edificios y lugares de interés, Puerto deportivo, Medio Ambiente, Turismo"
"http://www.gijon.es/directorios/show/1015-palacio-valdes","1015","es","fecha-actualizacion2014-06-13 10:13:11 +0200","http://www.gijon.es/data/images/f6/6823/250x333_v1_DirectorioMONUMENTOStorresvaldes.jpg","Palacio Valdés","<span style="font-weight: bold;">Fecha:</span> Finales del XVI e inicios del XVII.<br/> <br/><p>Estepalacio, ejemplo del renacimiento tardío asturiano, se levantó a mediados delsiglo XVI a instancias de Juan de Valdés, regidor de la ciudad.</p>Palacio de tipología clásica en Asturias, con cuerpo central entre dos torres. La planta está resuelta por el <span style="font-weight: bold;">sistema de cuatro alas en torno a un patio central cuadrado</span>. La fachada se abre al exterior a través de dos robustas torres cuadradas almenadas. El primer piso del cuerpo central se abre en amplios balcones. La decoración se reduce a un abundante almohadillado que rodea los vanos y recubre las aristas.<br/> <br/>Anexa está la capilla de Ntra. Sra. De Guadalupe, También se la conoce como Capilla de la Santa Cruz. Está adosada a la Torre de poniente del Palacio Valdés. Es de una sola nave, <span style="font-weight: bold;">con bóveda de cañón</span>, y alberga en su interior imágenes realizadas por Luis Fernández de la Vega. A lo largo del tiempo ha tenido diferentes usos, entre ellos sede de la primera fábrica de tabacos, y actualmente está destinado a centro escolar privado.","Plaza Campo Valdés, 1","43.545533 -5.661888","Monumentos, Ilustrado, Edificios y lugares de interés, Turismo, Cultura y Ocio, Turismo"
"http://www.gijon.es/directorios/show/926-mercado-del-sur","926","es","fecha-actualizacion2014-01-22 12:02:44 +0100","http://www.gijon.es/data/images/f6/6749/250x188_v1_DirectorioMONUMENTOSmercadosur.jpg","Mercado del Sur","<p>Afinales del siglo XIX, el despegue económico de Gijón, favoreció el aumento dela población.</p><p>En1898 se inició la construcción de un nuevo mercado bajo la dirección delarquitecto municipal Mariano Medarde y el ingeniero Buenaventura Junquera. Seinauguró el 7 de mayo de 1899.</p><p>De planta pentagonal irregular tiene estructura metálica a base de columnas de hierro fundido sin referencia estilística. La organización interior es la clásica en este tipo de edificios, con cuatro entradas. El cerramiento exterior está resuelto a base de <span style="font-weight: bold;">muro perforado por amplios ventanales delimitados por molduras ornamentales</span>, con clara inclinación hacia lo decorativo de los elementos eclécticos utilizados.</p><p>Eledificio, excelente ejemplo de arquitectura del hierro, inicialmente era de una<strong></strong>altura,<strong></strong> y actualmente<strong></strong> es una construcción de dosalturas, soportada por columnas de hierro fundido y con fachada profusamenteornamentada. Su estructura metálica fue realizada por la Fabrica deMieres.</p><p>Laúltima reforma permitió habilitar parte del recinto como centro comercial, quese une a su tradicional función de mercado.<br/></p>","Plaza Seis de Agosto, 8","43.539053 -5.663895","Monumentos, 2010, Gijón, Edificios y lugares de interés, Cultura y Ocio, Turismo"
"http://www.gijon.es/directorios/show/869-iglesia-de-san-pedro-apostol-mayor-de-gijon","869","es","fecha-actualizacion2014-06-13 14:48:17 +0200","http://www.gijon.es/data/images/f0/f2/29633/250x333_v1_s.pedro.jpg","Iglesia de San Pedro Apóstol Mayor de Gijón","<p>Laiglesia de San Pedro, construida entre 1945 y 1955 por los arquitectosFrancisco y Federico Somolinos, ocupa el lugar del templo del siglo XV que funcionócomo iglesia parroquial de la ciudad hasta finales del siglo XIX.</p><p>Laiglesia actual se inspira en los templos el prerrománico asturiano, de los quetoma las bóvedas superpuestas perpendicularmente, los esbeltos contrafuertes,el crucero elevado y elementos decorativos como las celosías, el sogueado delas columnas y las ventanas triforas.</p>","C/ Campo Valdés s/n, 33201 Gijón","43.545574 -5.660826","Monumentos, Edificios y lugares de interés, Cultura y Ocio, Turismo"
"http://www.gijon.es/directorios/show/867-iglesia-de-san-lorenzo","867","es","fecha-actualizacion2014-05-06 11:08:27 +0200","http://www.gijon.es/data/images/f0/f2/29632/250x188_v1_I.Sanlorenzo.jpg","Iglesia de San Lorenzo","985 342 819","985 349 298","parroquia@slorenzo.com","Concebidaen clave historicista, la iglesia de San Lorenzo se levantó entre 1896 y 1901.Su autor, Luis Bellido y González (1869-1955), es una de las figuras asturianasmás relevantes de la arquitectura del paso del siglo XIX al XX.<p>Laiglesia de San Lorenzo se inspira en el góticobajomedieval español e incluye abundantes vidrieras, ojivas y pináculos, con planta de cruz latina, enmascarada hacia el exterior, y cabecera plana. La fachada con pórtico tradicional de gablete y rosetón central está flanqueada por dos torres con arcos triforados y rematadas por pináculos. Fue destruida parcialmente en 1936.</p><p>En elinterior puede contemplarse la escultura de la Virgen con el Cristo resucitado, obra del  artista asturiano Joaquín Rubio Camín. <br/></p>","C/ Cabrales, s/n.","43.539111 -5.65963","Monumentos, Edificios y lugares de interés, Cultura y Ocio, Turismo"
"http://www.gijon.es/directorios/show/587-escalerona","587","es","fecha-actualizacion2014-01-22 12:02:35 +0100","http://www.gijon.es/data/images/f6/6517/250x163_v1_DirectorioMONUMENTOSla-escalerona.jpg","Escalerona","<p>LaEscalerona es una de las construcciones públicas más famosas de la ciudad ypunto de encuentro para los gijoneses que se acercan a la Playa de San Lorenzo.</p><p>En 1933el Ayuntamiento de Gijón reforma los accesos al arenal de San Lorenzo y encargael proyecto al arquitecto municipal, José Avelino Díaz y Fernández Omaña, cuyodiseño es un homenaje al Movimiento Moderno, de plena vigencia en el urbanismoeuropeo del momento.</p><p>Larestauración de la Escalerona, efectuada en 2000 por Miguel Díaz Negrete, le proporcionósu renovada imagen actual.</p>","Paseo del Muro de San Lorenzo, escalera 4","43.544167 -5.661599","Monumentos, 2010, Gijón, Edificios y lugares de interés, Cultura y Ocio, Turismo"
"http://www.gijon.es/directorios/show/568-edificio-tivoli","568","es","fecha-actualizacion2014-01-22 12:02:34 +0100","http://www.gijon.es/data/images/f6/6502/250x333_v1_DirectorioMONUMENTOStivoli.jpg","Edificio Tívoli","<span style="font-weight: bold;">Autor: </span>Miguel García de la Cruz.<br/> <br/><span style="font-weight: bold;">Fecha:</span> 1905.<br/> <br/><span style="font-weight: bold;">Categoría: </span>Modernismo.<br/> <br/>Ornamentación abundante en la fachada: temas simbolistas, ménsulas antropomórficas, cabezas femeninas entre hojas... Magnífica puerta de acceso al edificio, flanqueada a la altura del dintel por dos cabezas femeninas. El arquitecto Miguel García de la Cruz, responsable del proyecto, recurre a la combinación de piedra, azulejos y hierro en este, provisto de bajo para usos comerciales. Levantada en 1905.La composición se ajusta, aún, a los patrones clásicos del estilo regional, del que son buenos exponentes los acristalados miradores de madera. Una copiosa decoración se da cita en la fachada, sobresaliendo las cabezas femeninas que, entre ramas y hojas, culminan las terminaciones del cuarto piso; las representaciones simbólicas, o las ménsulas antropomórficas. Llama la atención, asimismo, la espléndida puerta de ingreso ¿custodiada a nivel del partido dintel por dos cabezas de féminas, con un complicado trabajo decorativo a base de escudos, troncos de vid, racimos, etc.","C/Corrida, 8","43.542762 -5.66431","Monumentos, 2010, Gijón, Edificios y lugares de interés"
"http://www.gijon.es/directorios/show/567-edificio-siemens","567","es","fecha-actualizacion2014-06-13 14:53:22 +0200","http://www.gijon.es/data/images/f6/6501/250x333_v1_DirectorioMONUMENTOSsiemens.jpg","Edificio Siemens","<span style="font-weight: bold;">Autor:</span> Miguel García de la Cruz.<br/><br/><span style="font-weight: bold;">Fecha:</span> 1911.<br/><br/><span style="font-weight: bold;">Categoría:</span> Modernismo.<br/><br/>Exponente del modernismo gijonés, este proyecto edificativo realizado para Antonio Sarri consigue una composición arquitectónica basada en la <span style="font-weight: bold;">utilización estudiada de la piedra</span>, el ladrillo y el metal que rompe con toda sensación de monotonía. Articulada de manera asimétrica, la fachada se enluce con ladrillo vidriado blanco y ofrece un diseño complejo donde los elementos medievales -arcos apuntados y de herradura- responden al estilo revival del modernismo catalán.<br/><br/>Se alternan balcones y baterías de miradores con un diseño diferente en cada caso y frisos con decoración vegetal sobre los vanos. Destaca el remate en chaflán de las dos fachadas, <span style="font-weight: bold;">coronado el origen con una cúpula de sección parabólica</span> hoy despreciada. Especialmente llamativa es la cornisa, formada por una sucesión de pináculos revestidos de azulejo y motivos geométricos de hierro, que nos recuerda en cierto sentido a la obra de Gaudí.","C/Corrida, 1","43.543598 -5.664155","Monumentos, 2010, Gijón, Edificios y lugares de interés, Cultura y Ocio, Turismo"
"http://www.gijon.es/directorios/show/565-edificio-n-43-de-la-calle-cabrales","565","es","fecha-actualizacion2014-06-13 14:54:22 +0200","http://www.gijon.es/data/images/f0/f2/29631/250x333_v1_Cabrales43.jpg","Edificio Nº43 de la Calle Cabrales","<span style="font-weight: bold;">Autor:</span> Mariano Marín Magallón.<br/> <br/><span style="font-weight: bold;">Fecha:</span> 1901.<br/><br/><span style="font-weight: bold;">Categoría:</span> Modernismo<br/><br/>Fachada con temas decorativos vegetales y simbolistas, realizados en piedra artificial y una cariátide (figura de mujer haciendo de columna) en el eje de simetría del piso principal. Interesante rejería y cerámicas.<br/><br/>Proyectado para Eduardo Menéndez Valdés, se trata de una casa en la que destaca la presencia de grandes zonas acristaladas, con la apertura de tres líneas de huecos amplios simétricamente dispuestas. Proliferan en el tratamiento de la fachada los <span style="font-weight: bold;">detalles ornamentales de tipo vegetal</span>, en convivencia con gráciles rostros femeninos de cabellos ondulantes en los remates superiores y cariátides.<br/><br/>Uno de sus elementos más destacables es el cuidado puesto en la rejería, resuelta a partir de tallos curvilíneos de tono típicamente modernista. En este edificio la profusión ornamental se explica por el <span style="font-weight: bold;">deseo de los propietarios volcar de cara al exterior su privilegiado status</span>. Las plantas principales conforman la residencia noble, destinada a familias pudientes que ya disponían de aseo, ropero, despacho, comedor y despensa, además de los característicos miradores. La buhardilla, reducida al los huecos mínimos, albergaba a personas de clase social inferior.","C/Cabrales, 43","43.538695 -5.659386","Monumentos, 2010, Gijón, Edificios y lugares de interés, Cultura y Ocio, Turismo"
"http://www.gijon.es/directorios/show/564-edificio-n-35-de-la-calle-corrida","564","es","fecha-actualizacion2014-01-22 12:02:34 +0100","http://www.gijon.es/data/images/f6/6500/197x291_v1_DirectorioMONUMENTOScorrida-35.jpg","Edificio Nº35 de la Calle Corrida","<span style="font-weight: bold;">Autor:</span> Mariano Marín Magallón.<br/> <br/><span style="font-weight: bold;">Fecha:</span> 1903.<br/> <br/><span style="font-weight: bold;">Categoría: </span>Modernismo.<br/> <br/>Por su composición y la combinación de materiales, este edificio es un claro ejemplo de la influencia del <span style="font-weight: bold;">Art Nouveau en el modernismo gijonés</span>. La fachada se organiza en torno a los grandes miradores de piedra acristalados que recorren la zona central de la misma, con dos tramos de balcones en los laterales, de balaustrada corrida en la primera planta y de sección curva en la segunda.Completa el repertorio modernista de envolventes formas ondulantes en rejas y molduras, los paneles esculpidos con motivos florales y la solución novedosa que ofrece el <span style="font-weight: bold;">hastial de buhardilla en el ático con dos óculos laterales</span> y remate en pináculo bajo el que se dispone un clípeo azulejado en el que aparecen entrelazadas las iniciales del propietario.","C/Corrida, 35","43.541594 -5.663943","Monumentos, 2010, Gijón, Edificios y lugares de interés"
"http://www.gijon.es/directorios/show/562-edificio-n-18-de-la-calle-cabrales","562","es","fecha-actualizacion2014-06-13 14:49:46 +0200","http://www.gijon.es/data/images/f6/6499/197x279_v1_DirectorioMONUMENTOScabrales-18.jpg","Edificio Nº18 de la Calle Cabrales","<span style="font-weight: bold;">Autor:</span> Manuel del Busto.<br/> <br/><span style="font-weight: bold;">Fecha:</span> 1903.<br/> <br/><span style="font-weight: bold;">Categoría:</span> Modernismo.<br/> <br/>Esta casa pese a haber visto alterada su fisonomía original, mantiene en la composición de su fachada elevada a cuatro alturas, con <span style="font-weight: bold;">distintos órdenes superpuestos en cada piso</span>, unos detalles decorativos de raigambre modernista. Dichos detalles, realizados en cerámica, recogen cabezas enmarcadas en medallones junto a jugosos motivos vegetales, conviviendo con un esmerado trabajo en las molduras. Destaca la riqueza de su policromía, hoy desvirtuada con respecto a su estado inicial, a partir de la combinación de diversos materiales, concretamente cerámica, ladrillo, <span style="font-weight: bold;">piedra y sillares de caliza en el bajo</span>.<br/> <br/>De cualquier modo, originalmente su vinculación con las formas propias del Art Nouveau era mucho más evidente, presentando entonces como elemento más llamativo, junto a unos <span style="font-weight: bold;">vistosos miradores y diversos elementos realizados en hierro</span> tales como una crestería de remate, una exótica torre-pagoda elevada sobre la rotonda de varios tejadillos superpuestos, siguiendo un gusto japonesista.","C/Cabrales, 18","43.543443 -5.661612","Monumentos, 2010, Gijón, Edificios y lugares de interés, Cultura y Ocio, Turismo"
"http://www.gijon.es/directorios/show/561-edificio-n-16-de-la-calle-instituto","561","es","fecha-actualizacion2014-06-13 12:05:45 +0200","http://www.gijon.es/data/images/f0/f3/30328/250x333_v1_instituto-n16.jpg","Edificio Nº16 de la Calle Instituto","<span style="font-weight: bold;">Autor:</span> Miguel García de la Cruz.<br/> <br/><span style="font-weight: bold;">Fecha:</span> 1912-1913.<br/> <br/><span style="font-weight: bold;">Categoría:</span> Modernismo.<br/><br/> Inmueble proyectado para <span style="font-weight: bold;">Primitivo Fernández </span>que articula la fachada de la calle Instituto con dos baterías de miradores y se une a los otros muros en una rotonda. Los diseños de los balcones y su rejería, el revestimiento con azulejos blancos y las bandas de cerámica decorada que forman las líneas de imposta del primer y segundo pisos -donde destaca la superior, constituida por una guirnalda de lirios entrecruzados- hacen del edificio un <span style="font-weight: bold;">ejemplo del modernismo gijonés</span>.<br/> <br/>Se remata con una cornisa de pináculos, destacando la solución de la gran cartela que corona la rotonda, donde aparecen, junto al año de finalización de la construcción, las iniciales del propietario. Este interesante edificio se debe al diseño de Miguel García de la Cruz, el que bien puede ser considerado como <span style="font-weight: bold;">el más modernista de los arquitectos que trabajaron en la villa de Jovellanos</span>. Arquitecto municipal desde 1904, sus edificios presentan una deuda bastante evidente con el modernismo belga y francés.","C/Instituto, 16","43.543272 -5.663082","Monumentos, 2010, Gijón, Edificios y lugares de interés, Cultura y Ocio, Turismo"
"http://www.gijon.es/directorios/show/559-edificio-del-antiguo-cafe-san-miguel","559","es","fecha-actualizacion2014-06-13 12:02:41 +0200","http://www.gijon.es/data/images/f6/6497/250x333_v1_DirectorioMONUMENTOSsanmiguel.jpg","Edificio del antiguo Café San Miguel","<span style="font-weight: bold;">Autor:</span> Manuel del Busto.<br/> <br/><span style="font-weight: bold;">Fecha:</span> 1903.<br/> <br/>Este edificio albergaba el antiguo Café San Miguel, el popular 'Cafetón', situado en la plaza del mismo nombre. En el caso de esta <span style="font-weight: bold;">edificación elevada en tres pisos</span>, el aire neobarroco adquiere un peso mucho mayor que las fórmulas típicamente Art-Noveau, en especial en lo que comporta al tratamiento de las molduras, sobresaliendo la <span style="font-weight: bold;">presencia de complejos pináculos de remate</span> o de la cúpula elevada sobre la rotonda con mansardas.","Plazuela San Miguel","43.539626 -5.657101","Monumentos, 2010, Gijón, Edificios y lugares de interés, Cultura y Ocio, Turismo"
"http://www.gijon.es/directorios/show/518-chalet-de-ladislao-menendez","518","es","fecha-actualizacion2014-06-13 12:00:24 +0200","http://www.gijon.es/data/images/f6/6470/250x333_v1_DirectorioMONUMENTOSlacislao.jpg","Chalet de Ladislao Menéndez","<span style="font-weight: bold;">Autor:</span> Manuel del Busto.<br/> <br/><span style="font-weight: bold;">Fecha:</span> 1907.<br/> <br/><span style="font-weight: bold;">Categoría:</span> Modernismo.<br/> <br/>Propiedad de Ladislao Menéndez, este edificio se concibe como una vivienda unifamiliar aislada y rodeada de jardín por dos de sus flancos. Se estructura en torno a una serie de volúmenes cúbicos aterrazados, siendo su elemento más destacado la <span style="font-weight: bold;">torre rematada por un mirador períptero con cubierta a cuatro aguas</span> realizada con teja vidriada en verde, muy del gusto modernista, al igual que la decoración en cintas del cancel de hierro que aparece en la entrada y la aplicación de la técnica del tencradís siguiendo la estética de Gaudí -revestimiento con grandes teselas a modo de mosaico- en la única chimenea del inmueble.<br/> <br/>La ornamentación muestra la habitual contención de las obras de Manuel del Busto: motivos decorativos naturalistas combinados con bustos masculinos en paneles, <span style="font-weight: bold;">las columnas del mirador y las balaustradas</span>. Destaca en la fachada la ventana esquinera o chaflán de tres vanos separados por pequeñas columnas.","Plaza de Europa, 27","43.53787 -5.663728","Monumentos, 2010, Gijón, Edificios y lugares de interés, Cultura y Ocio, Turismo"
"http://www.gijon.es/directorios/show/416-instituto-jovellanos-centro-de-cultura-antiguo-instituto","416","es","fecha-actualizacion2014-01-22 12:02:30 +0100","http://www.gijon.es/data/images/f6/6407/250x188_v1_Directorioedificiosmunicipalesantistituto.jpg","Instituto Jovellanos. Centro de Cultura Antiguo Instituto","+34 985 181 001","985 350 709","ccai@gijon.es","http://cultura.gijon.es","<span style="font-weight: bold;">Lunes a Viernes:</span> 9:00-22:00h.<br/><span style="font-weight: bold;">Sábados:</span> 10:00-14:00h. y 16:00-21:00h.<br/><span style="font-weight: bold;">Domingos y festivos:</span> 10:00-14:00h.","<p>El 19 deoctubre de 1797, Gaspar Melchor de Jovellanos colocó la primera piedra del RealInstituto Asturiano, fundado con el objetivo de impartir formación científica ytécnica en las materias de marina y minería, dada la importancia de ambasactividades en Asturias.</p><p>Eledificio actual es el resultado de dos fases constructivas. La primera sedesarrolló entre 1797 y 1807 y responde a las trazas de Juan de Villanueva(1739-1811), que proyectó la planta baja, de estilo neoclásico. La segunda fasese corresponde con la ampliación realizada entre 1887 y 1892 por Ricardo MarcosBausá, que consistió en la elevación de dos plantas sobre la original.</p><p>Actualmentealberga el Centro de Cultura Antiguo Instituto, un espacio de referencia parala creación, producción y difusión artística y cultural de la ciudad, así como de la formación especializada en los lenguajes artísticos, proporcionando los espacios y equipamientos adecuados para tal fin. Depende del Departamento de Promoción de las Artes cuyo objetivo primordial es el apoyo a los creadores que inician su trabajo en distintos ámbitos de la creación.Su programación se articula en las siguientes grandes áreas: Programas de Difusión: Conciertos de Música, actuaciones de Teatro y Danza, Poesía, Imagen; Apoyo a la Creación Artística; Formación especializada: Sonido, Imagen, Teatro, Danza; Apoyo al Asociacionismo: casi 200 entidades y asociaciones colaboran anualmente en las actividades del Centro; Grandes eventos culturales: Salón del Libro Iberoamericano, Fetén, Semana de Música Antigua, Danza Gijón, Festival Internacional de Cine, Salón Internacional del Cómic, Al Norte, Festival Internacional de Video-Arte Optica, Festival Internacional de música de Gijón...<br/></p><br/><h3>Accesibilidad:</h3><ul><li>Alta: <ul><li>Acceso </li><li>Movilidad interior</li></ul></li><li>Media: <br/><ul><li>Ascensor</li></ul></li><li>Baja: <ul><li>Aseos<br/></li></ul></li></ul><h3>Observaciones: </h3>Dispone de aseo para personas con discapacidad, pero se considera practicable pues no cumple con las medidas legalmente establecidas (carece de espacio de transferencia y el lavabo tiene pedestal).<br/><br/><h3>Información sobre las salas del Centro de Cultura Antiguo Instituto</h3><br/><table><thead><tr><th>Sala</th><th>Teatro</th><th>Otras disposiciones<br/></th><th>m<sup>2</sup></th><th>Altura<br/></th></tr></thead><tbody><tr><td>Salón de actos<br/></td><td>120</td><td><br/></td><td>150</td><td>4 - 5<br/></td></tr><tr><td>Sala de conferencias<br/></td><td>100</td><td>Escuela</td><td>82</td><td>4<br/></td></tr></tbody></table>","C/Jovellanos, 21. 33201 Gijón","Sala de Exposiciones, Servicios Municipales, Cajeros Ciudadanos, Edificios Municipales, Mediatecas, Zona Wifi, 2010, Gijón, Otras salas de congresos, Servicios municipales, Turismo, Monumentos, Edificios y lugares de interés, Administración, Comunicaciones, Cultura y Ocio, Turismo"
"http://www.gijon.es/directorios/show/388-capilla-de-nuestra-senora-de-los-remedios","388","es","fecha-actualizacion2014-06-13 10:09:25 +0200","http://www.gijon.es/data/images/f0/f2/29629/250x333_v1_c.remedios.jpg","Capilla de Nuestra Señora de los Remedios","<p>Gijón sehalla en el paso costero del Camino de Santiago, conocido como “Camino delNorte”, en cuyo recorrido había albergues y hospitales para peregrinos. EnGijón, esa labor la desempeñaba el hospital de los peregrinos a Compostela o“corraxos”, cuyo origen parece remontarse al siglo XV. La capilla de nuestraSeñora de los Remedios estaba vinculada a este hospital.</p><p>Posteriormentepasó a denominarse Hospital de Nuestra Señora de los Remedios, manteniendo sufunción asistencial hasta 1836. Desde 1940, la capilla alberga los restos deGaspar Melchor de Jovellanos.</p>","Plaza Jovellanos, 33201 - Gijón","43.545922 -5.662905","Monumentos, 2010, Gijón, Ilustrado, Edificios y lugares de interés, Cultura y Ocio, Turismo"
"http://www.gijon.es/directorios/show/387-capilla-de-la-soledad","387","es","fecha-actualizacion2014-04-29 10:07:16 +0200","http://www.gijon.es/data/images/f0/f2/29628/250x333_v1_C.soledad.jpg","Capilla de la Soledad","<p>Lacapilla original se levantó en 1674 por iniciativa de Antonia Valdés Llanos,bajo la advocación de Nuestra Señora de la Asunción. Hoy es sede de laCofradía de Pescadores de Gijón, la cual conserva la tradición del antiguo gremiode mareantes.</p><p>Lacapilla, de reducidas dimensiones, tiene coro de madera y ábside cuadradocubierto con bóveda de pañuelo. Su decoración exterior es sencilla y se limita alprominente almohadillado de la portada de acceso. En la fachada lateral se abreuna saetera en forma de venera.</p>","C/Soledad s/n 33201 - Gijón","43.546727 -5.665147","Monumentos, 2010, Gijón, Ilustrado, Edificios y lugares de interés, Cultura y Ocio, Turismo"
"http://www.gijon.es/directorios/show/307-basilica-sagrado-corazon-de-jesus","307","es","fecha-actualizacion2014-04-29 12:32:46 +0200","http://www.gijon.es/data/images/f6/6358/250x333_v1_DirectorioMONUMENTOScorazon-jesus.jpg","Basílica Sagrado Corazón de Jesús","<span style="font-weight: bold;">Categoría:</span> Modernismo.<br/> <br/><p>Conocidapopularmente como “La Iglesiona”, la Basílica del Sagrado Corazón se construyeentre 1918 y 1922 siguiendo dos proyectos.<br/></p>El primer proyecto de la Iglesiona, luego modificado por Miguel García de la Cruz, se situaba a medio camino <span style="font-weight: bold;">entre el revival gótico y el modernismo de influencia gaudiniana</span>. Dicha vinculación puede observarse, de primero, en el interior. El templo, proyectado por el arquitecto catalán Rubio Bellver para los padres jesuitas en el año 1911, recurre en cuanto a la configuración del espacio interno a soluciones que nos remiten a la obra de Gaudi, en concreto en lo que comporta a las secciones parabólicas de la bóveda y los arcos polilobulados del presbiterio.La fachada principal, pese al mantenimiento de elementos tradicionales como el rosetón central sobre la portada, gablete y torres laterales, se plantea como <span style="font-weight: bold;">marco de un diseño decorativo fundamentado en un acusado contraste de luces y sombras</span> de tinte expresionista, visible sobre todo en las torres. Nombrada Basílica en el año 2003.","C/ Jovellanos, s/n.","43.541549 -5.662476","Monumentos, 2010, Gijón, Edificios y lugares de interés, Cultura y Ocio, Turismo"
"http://www.gijon.es/directorios/show/306-antiguo-banco-de-gijon","306","es","fecha-actualizacion2014-06-13 10:51:29 +0200","http://www.gijon.es/data/images/f6/6357/250x369_v1_DirectorioMONUMENTOSbancogijon.jpg","Antiguo Banco de Gijón","<span style="font-weight: bold;">Autor:</span> Luis Bellido.<br/> <br/>Ocupa una parcela entre las calles Moros, Munuza y Enrique Cangas. Tras su quiebra fue ocupado por el Banco de Gijón. Ahora es del Banco Hispano-Americano o Central Hispano.<br/> <br/>Representa una arquitectura edificativa de ostentación, propia de la burguesía financiera del momento que <span style="font-weight: bold;">quiere reflejar al exterior una solidez favorable a la actividad económica que desarrolla</span>. Desde el punto de vista formal el edificio se encuadra el en el eclecticismo francés.<br/> <br/>Se distribuye en 4 pisos rematados por una cubierta en mansarda revestida de placas de pizarra siguiendo el <span style="font-weight: bold;">gusto parisino </span>y rematada por óculos, pináculos y templetes. La esquina en chaflán con dos grandes pilastras de orden gigante alberga la entrada principal.En una de las viviendas de este edificio, a las que se accede por la calle Begoña, vivió y falleció el gran pintor gijonés Evaristo Valle.","Plazoleta de Florencio Rodríguez Rodríguez, 1","43.54229 -5.663366","Monumentos, 2010, Gijón, Edificios y lugares de interés, Cultura y Ocio, Turismo"
"http://www.gijon.es/directorios/show/304-ayuntamiento-de-gijon","304","es","fecha-actualizacion2014-06-13 11:36:00 +0200","http://www.gijon.es/data/images/f6/6355/250x402_v1_DirectorioMONUMENTOSayuntamiento.jpg","Ayuntamiento de Gijón","985 181 111   /105","985 181 182","Se debe a un proyecto del arquitecto Andrés Coello aunque con algunas modificaciones de los técnicos que dirigieron las obras, Luis Céspedes, primero, y Lucas Mª Palacio, después. Es un <span style="font-weight: bold;">bloque cúbico de tres plantas situado en una plaza porticada</span> inconclusa por una de sus crujías. La primera planta tiene un amplio balcón de balaustrada y cuatro amplias ventanas.<br/><br/>La segunda planta no muestra separación con la anterior y ambas están recorridas por dobles pilastras con capiteles compuestos. Está rematada por una cornisa, por encima de la cual la recorre una balaustrada, rematada por un frontón semicircular donde se encuentra el reloj y una torreta con el escudo de la ciudad. <span style="font-weight: bold;">De carácter historicista</span>, remarcado por la plaza porticada donde se localiza, ha sido remodelado en el año 2002.<br/><br/><span style="font-weight: bold;">Autor:</span><br/>Andrés Coello realizó el proyecto y Luis Céspedes, primero, y Lucas Mª Palacio dirigieron las obras con algunas modificaciones sobre dicho proyecto. <br/><br/><span style="font-weight: bold;">Fecha:</span><br/>1861-65","Plaza Mayor, 1","43.54501 -5.662256","Monumentos, 2010, Gijón, Edificios y lugares de interés, Cultura y Ocio, Turismo"
"http://www.gijon.es/directorios/show/274-torre-del-reloj","274","es","fecha-actualizacion2014-01-22 12:02:26 +0100","http://www.gijon.es/data/images/f6/6340/203x270_v1_Directoriomuseostorrereloj.jpg","Torre del Reloj","985 181 120","985 181 182","archivo@gijon.es","Lunes a Viernes: 9:00-14:00h.","<p>Selevantó en 1572 sobre los restos de la antigua muralla romana. Inicialmente sedestinó a casa consistorial, siendo sede del Ayuntamiento hasta sureutilización como cárcel, función que desempeñó hasta 1909. Tras su abandono,fue demolida en 1911.</p><p>En1989, durante la rehabilitación del barrio de Cimavilla, salieron a la luz losvestigios de la antigua muralla romana. Tras su estudio, se decidió visibilizaresos restos, acometiendo una reconstrucción que mostrase el aspecto original dela estructura defensiva. El edificio de la Torre del Reloj se recuperósiguiendo esos mismos criterios, para mantener la coherencia visual del conjunto.</p><p>Actualmentees sede del Archivo Municipal de Gijón.</p>","C/Recoletas, 5 (Edificio Torre del Reloj). 33201 Gijón","43.545686 -5.663436","Servicios Municipales, Edificios Municipales, Zona Wifi, Gijón, Monumentos, Edificios y lugares de interés, Administración, Comunicaciones, Cultura y Ocio, Turismo"
"http://www.gijon.es/directorios/show/272-antiguo-convento-de-las-agustinas-recoletas-fabrica-de-tabacos","272","es","fecha-actualizacion2014-01-22 12:02:26 +0100","http://www.gijon.es/data/images/f6/6338/250x188_v1_DirectorioMONUMENTOSrecoletas.jpg","Antiguo convento de las Agustinas Recoletas - Fábrica de Tabacos","Eledificio tiene su origen en 1670, cuando se fundó el convento para lacongregación de Agustinas Recoletas, primer monasterio de la ciudad y tambiénescuela de niñas. Fue rematada en 1679, realizándose la iglesia en 1684, todo bajo la <span style="font-weight: bold;">orden de los maestros de cantería</span> Ignacio de Palacio y Juan San Miguel.<br/><br/>En 1733 se realizaron obras de ampliación. En 1842,tras su desamortización, el convento se transformó en fábrica de tabacos, por loque pasó a ser conocido como “La Tabacalera”. Fue la primera industria deimportancia en Gijón y su plantilla estaba integrada por mujeres. Su actividadse prolongó desde mediados del siglo XIX hasta 2002.<p>LaAntigua Fábrica de Tabacos es uno de los pocos ejemplos asturianos dereutilización de un edificio religioso para uso industrial.<br/></p>","Plaza del Periodista Arturo Arias, 14 (Cimadevilla)","43.546653 -5.662993","Monumentos, 2010, Gijón, Ilustrado, Edificios y lugares de interés, Cultura y Ocio, Turismo"
"http://www.gijon.es/directorios/show/271-antigua-escuela-superior-de-comercio","271","es","fecha-actualizacion2014-04-29 12:27:43 +0200","http://www.gijon.es/data/images/f6/6337/250x188_v1_DirectorioMONUMENTOSescuela-comercio.jpg","Antigua Escuela Superior de Comercio","<span style="font-weight: bold;">Autor:</span> Manuel del Busto.<br/> <br/><span style="font-weight: bold;">Fecha:</span> 1910-1915.<br/> <br/><span style="font-weight: bold;">Categoría:</span> Modernismo.<br/> <br/><p>En 1915se inauguró en Gijón una de las infraestructuras públicas más importantes delensanche de la ciudad, la nueva sede de la Escuela Superior de Comercio, quefuncionó durante todo el siglo XX como centro educativo de enseñanzas superioresen el ámbito mercantil.</p><p>Eledificio es obra de Manuel del Busto (1874-1948), uno de los arquitectos másimportantes de la primera mitad del siglo XX en Asturias, autor de numerososedificios en Gijón adscritos al eclecticismo, al modernismo y al funcionalismo.</p>Es el primer edificio construido en Gijón de <span style="font-weight: bold;">estructura enteramente metálica</span>, que va a permitir la utilización de espacios internos muy diáfanos y abrir una gran superficie de vanos en los muros que permitan la entrada de la luz en consonancia con la función educativa a la que estaba destinado.<br/> <br/>Los tramos coincidentes con aulas o grandes vestíbulos se corresponden con los <span style="font-weight: bold;">ventanales partidos por maineles</span>, mientras que el piso superior destinado en origen a viviendas- muestra una disposición de las ventanas mas tradicional. Destaca una gran vidriera con decoración de gusto renacentista situada sobre la entrada principal.","C/Tomás y Valiente, 1. 33201 Gijón","43.540944 -5.662028","Monumentos, 2010, Gijón, Edificios y lugares de interés, Cultura y Ocio, Turismo"
"http://www.gijon.es/directorios/show/94-teatro-jovellanos","94","es","fecha-actualizacion2014-06-13 14:35:58 +0200","http://www.gijon.es/data/images/f3/3120/250x188_v1_T.jovellanos.jpg","Teatro Jovellanos","985 182 929","985 182 939","info@teatrojovellanos.com","http://tj.gijon.es","(Oficina)Lunes a Viernes: 9:30-14:30h. y 17:30-20:30h. Taquilla: 12:00-14:00h. y 17:30-20:30h.","<span style="font-weight: bold;">Autor:</span> El arquitecto fue Mariano Marín Magallón y en 1939 acometió las obras de restauración José Mª Mendoza y Ussía. <br/><br/><span style="font-weight: bold;">Fecha:</span> 1899.<br/> <br/>Junto a las viviendas que lo rodean, se enmarca en un estilo ecléctico-historicista. Se distinguen dos partes en la composición: <span style="font-weight: bold;">una arcada de pilastras decoradas con trofeos alegóricos</span> que se extienden por toda la superficie hasta la altura de los cuerpos laterales, y un piso superior a modo, de remate, en el que se abre una galería que soporta una amplia cornisa moldurada. El proyecto original fue bastante reformado en la restauración de 1939. Asimismo, en la década de los 90 se llevó a cabo <span style="font-weight: bold;">obras de restauración</span> que permitieron recuperar el Teatro para la ciudad.","Estamos también en C/ Cabrales, 82 - 33201 Gijón (Asturias)","2010, Festival de Cine, Gijón, Teatro Jovellanos, Administración, Servicios Municipales, Cultura y Ocio, Monumentos, Teatro, Turismo, Edificios y lugares de interés"
